{
  "norad_id": 66417,
  "name": "HULIANWANG DIGUI-101",
  "history": [
    {
      "epoch": "2026-03-28T20:19:46.313184Z",
      "apogee_km": 1149.6995896990456,
      "perigee_km": 1148.848691143733,
      "latitude_deg": 2.8266829478928304e-06,
      "longitude_deg": 92.58929066506343,
      "height_km": 1150.2053764291334,
      "semi_major_axis_km": 7527.411140421389,
      "eccentricity": 5.652e-05,
      "inclination_deg": 49.9991,
      "raan_deg": 223.7939,
      "arg_perigee_deg": 181.0222,
      "mean_anomaly_deg": 179.0649,
      "mean_motion_rev_day": 13.29334591
    },
    {
      "epoch": "2026-03-29T03:32:48.152256Z",
      "apogee_km": 1149.6977713332944,
      "perigee_km": 1148.8501848571614,
      "latitude_deg": 6.113514847831688e-06,
      "longitude_deg": -17.043468324087687,
      "height_km": 1150.2031249154982,
      "semi_major_axis_km": 7527.410978095228,
      "eccentricity": 5.63e-05,
      "inclination_deg": 49.9991,
      "raan_deg": 222.7152,
      "arg_perigee_deg": 182.8411,
      "mean_anomaly_deg": 177.2458,
      "mean_motion_rev_day": 13.29334634
    },
    {
      "epoch": "2026-03-30T03:00:09.137664Z",
      "apogee_km": 1149.6997539640397,
      "perigee_km": 1148.8476510725159,
      "latitude_deg": -1.0464535171277177e-05,
      "longitude_deg": -13.349717465997225,
      "height_km": 1150.2024392408944,
      "semi_major_axis_km": 7527.4107025182775,
      "eccentricity": 5.66e-05,
      "inclination_deg": 49.9991,
      "raan_deg": 219.2097,
      "arg_perigee_deg": 187.0694,
      "mean_anomaly_deg": 173.017,
      "mean_motion_rev_day": 13.29334707
    },
    {
      "epoch": "2026-03-30T04:48:24.597216Z",
      "apogee_km": 1149.7008188965538,
      "perigee_km": 1148.8464577891018,
      "latitude_deg": 4.2402449332838784e-05,
      "longitude_deg": -40.75778777760095,
      "height_km": 1150.2029305387643,
      "semi_major_axis_km": 7527.410638342828,
      "eccentricity": 5.675e-05,
      "inclination_deg": 49.9991,
      "raan_deg": 218.9401,
      "arg_perigee_deg": 187.6606,
      "mean_anomaly_deg": 172.4258,
      "mean_motion_rev_day": 13.29334724
    },
    {
      "epoch": "2026-03-30T13:49:41.901888Z",
      "apogee_km": 1149.704943871433,
      "perigee_km": 1148.842302614009,
      "latitude_deg": 1.6858414476782363e-05,
      "longitude_deg": -177.79871022109563,
      "height_km": 1150.2055088128461,
      "semi_major_axis_km": 7527.410623242721,
      "eccentricity": 5.73e-05,
      "inclination_deg": 49.9991,
      "raan_deg": 217.5918,
      "arg_perigee_deg": 189.0581,
      "mean_anomaly_deg": 171.0281,
      "mean_motion_rev_day": 13.29334728
    },
    {
      "epoch": "2026-03-30T19:14:28.286592Z",
      "apogee_km": 1149.702139853296,
      "perigee_km": 1148.845068881883,
      "latitude_deg": 3.523111107543868e-05,
      "longitude_deg": 99.97683650498236,
      "height_km": 1150.202415586744,
      "semi_major_axis_km": 7527.410604367589,
      "eccentricity": 5.693e-05,
      "inclination_deg": 49.9991,
      "raan_deg": 216.7829,
      "arg_perigee_deg": 189.3293,
      "mean_anomaly_deg": 170.7569,
      "mean_motion_rev_day": 13.29334733
    },
    {
      "epoch": "2026-03-31T18:41:49.272864Z",
      "apogee_km": 1149.7023836289327,
      "perigee_km": 1148.8442588523112,
      "latitude_deg": 1.7945230585150422e-05,
      "longitude_deg": 103.67048390752106,
      "height_km": 1150.1963611273177,
      "semi_major_axis_km": 7527.410321240622,
      "eccentricity": 5.7e-05,
      "inclination_deg": 49.9991,
      "raan_deg": 213.2773,
      "arg_perigee_deg": 193.5918,
      "mean_anomaly_deg": 166.4939,
      "mean_motion_rev_day": 13.29334808
    },
    {
      "epoch": "2026-04-01T18:09:10.253088Z",
      "apogee_km": 1149.7072828422788,
      "perigee_km": 1148.8386197338996,
      "latitude_deg": 5.967095679188369e-05,
      "longitude_deg": 107.36420576507678,
      "height_km": 1150.1910775285207,
      "semi_major_axis_km": 7527.409951288089,
      "eccentricity": 5.77e-05,
      "inclination_deg": 49.9991,
      "raan_deg": 209.7717,
      "arg_perigee_deg": 198.4181,
      "mean_anomaly_deg": 161.6671,
      "mean_motion_rev_day": 13.29334906
    },
    {
      "epoch": "2026-04-02T19:24:46.677312Z",
      "apogee_km": 1149.7154214622833,
      "perigee_km": 1148.8289937539948,
      "latitude_deg": 4.8010195500598826e-05,
      "longitude_deg": 83.64983311778364,
      "height_km": 1150.1823497616965,
      "semi_major_axis_km": 7527.409207608139,
      "eccentricity": 5.888e-05,
      "inclination_deg": 49.9991,
      "raan_deg": 205.9965,
      "arg_perigee_deg": 204.2735,
      "mean_anomaly_deg": 155.811,
      "mean_motion_rev_day": 13.29335103
    },
    {
      "epoch": "2026-04-03T17:03:52.174656Z",
      "apogee_km": 1149.722336819109,
      "perigee_km": 1148.8205532873926,
      "latitude_deg": -5.200943266995469e-05,
      "longitude_deg": 114.75174747674139,
      "height_km": 1150.174982983293,
      "semi_major_axis_km": 7527.408445053251,
      "eccentricity": 5.99e-05,
      "inclination_deg": 49.9991,
      "raan_deg": 202.7606,
      "arg_perigee_deg": 208.2011,
      "mean_anomaly_deg": 151.8828,
      "mean_motion_rev_day": 13.29335305
    },
    {
      "epoch": "2026-04-04T18:19:28.581600Z",
      "apogee_km": 1149.736340649867,
      "perigee_km": 1148.8059530029204,
      "latitude_deg": -2.8518825560926712e-05,
      "longitude_deg": 91.0374747603448,
      "height_km": 1150.1667938780854,
      "semi_major_axis_km": 7527.408146826394,
      "eccentricity": 6.18e-05,
      "inclination_deg": 49.9992,
      "raan_deg": 198.9854,
      "arg_perigee_deg": 213.1658,
      "mean_anomaly_deg": 146.9175,
      "mean_motion_rev_day": 13.29335384
    },
    {
      "epoch": "2026-04-05T14:10:18.610752Z",
      "apogee_km": 1149.746682938815,
      "perigee_km": 1148.7953691124858,
      "latitude_deg": 4.798632207537e-05,
      "longitude_deg": 149.5476857623073,
      "height_km": 1150.1564083204073,
      "semi_major_axis_km": 7527.40802602565,
      "eccentricity": 6.319e-05,
      "inclination_deg": 49.9992,
      "raan_deg": 196.0191,
      "arg_perigee_deg": 217.1539,
      "mean_anomaly_deg": 142.929,
      "mean_motion_rev_day": 13.29335416
    }
  ]
}